CCSDS_OMM_VERS = 2.0
CREATION_DATE  = 
ORIGINATOR     = 

OBJECT_NAME    = STARLINK-36976
OBJECT_ID      = 2026-041AC
CENTER_NAME    = EARTH
REF_FRAME      = TEME
TIME_SYSTEM    = UTC
MEAN_ELEMENT_THEORY = SGP/SGP4

EPOCH          = 2026-03-11T10:00:01.999584
MEAN_MOTION    = 15.89771673
ECCENTRICITY   = .0000591
INCLINATION    = 53.1582
RA_OF_ASC_NODE = 53.3351
ARG_OF_PERICENTER = 70.9507
MEAN_ANOMALY   = 279.4153

EPHEMERIS_TYPE = 0
CLASSIFICATION_TYPE = U
NORAD_CAT_ID   = 68066
ELEMENT_SET_NO = 999
REV_AT_EPOCH   = 265
BSTAR          = -.57981E-2
MEAN_MOTION_DOT = -.152004E-1
MEAN_MOTION_DDOT = 0

CCSDS_OMM_VERS = 2.0
CREATION_DATE  = 
ORIGINATOR     = 

OBJECT_NAME    = STARLINK-36929
OBJECT_ID      = 2026-041AD
CENTER_NAME    = EARTH
REF_FRAME      = TEME
TIME_SYSTEM    = UTC
MEAN_ELEMENT_THEORY = SGP/SGP4

EPOCH          = 2026-03-11T10:00:01.999584
MEAN_MOTION    = 15.89521143
ECCENTRICITY   = .0000506
INCLINATION    = 53.1582
RA_OF_ASC_NODE = 53.3484
ARG_OF_PERICENTER = 68.8024
MEAN_ANOMALY   = 275.2286

EPHEMERIS_TYPE = 0
CLASSIFICATION_TYPE = U
NORAD_CAT_ID   = 68067
ELEMENT_SET_NO = 999
REV_AT_EPOCH   = 265
BSTAR          = -.58691E-2
MEAN_MOTION_DOT = -.1519062E-1
MEAN_MOTION_DDOT = 0

CCSDS_OMM_VERS = 2.0
CREATION_DATE  = 
ORIGINATOR     = 

OBJECT_NAME    = STARLINK-36990
OBJECT_ID      = 2026-041AE
CENTER_NAME    = EARTH
REF_FRAME      = TEME
TIME_SYSTEM    = UTC
MEAN_ELEMENT_THEORY = SGP/SGP4

EPOCH          = 2026-03-11T10:00:01.999584
MEAN_MOTION    = 15.89856823
ECCENTRICITY   = .0000486
INCLINATION    = 53.1582
RA_OF_ASC_NODE = 53.3278
ARG_OF_PERICENTER = 67.2374
MEAN_ANOMALY   = 286.6405

EPHEMERIS_TYPE = 0
CLASSIFICATION_TYPE = U
NORAD_CAT_ID   = 68068
ELEMENT_SET_NO = 999
REV_AT_EPOCH   = 265
BSTAR          = -.56959E-2
MEAN_MOTION_DOT = -.1502575E-1
MEAN_MOTION_DDOT = 0

CCSDS_OMM_VERS = 2.0
CREATION_DATE  = 
ORIGINATOR     = 

OBJECT_NAME    = STARLINK-36766
OBJECT_ID      = 2026-042A
CENTER_NAME    = EARTH
REF_FRAME      = TEME
TIME_SYSTEM    = UTC
MEAN_ELEMENT_THEORY = SGP/SGP4

EPOCH          = 2026-03-11T10:00:01.999584
MEAN_MOTION    = 15.96637109
ECCENTRICITY   = .0000751
INCLINATION    = 53.1599
RA_OF_ASC_NODE = 186.4459
ARG_OF_PERICENTER = 85.9690
MEAN_ANOMALY   = 194.6277

EPHEMERIS_TYPE = 0
CLASSIFICATION_TYPE = U
NORAD_CAT_ID   = 68069
ELEMENT_SET_NO = 999
REV_AT_EPOCH   = 231
BSTAR          = -.31212E-2
MEAN_MOTION_DOT = -.1354828E-1
MEAN_MOTION_DDOT = .55656E-3

CCSDS_OMM_VERS = 2.0
CREATION_DATE  = 
ORIGINATOR     = 

OBJECT_NAME    = STARLINK-36823
OBJECT_ID      = 2026-042B
CENTER_NAME    = EARTH
REF_FRAME      = TEME
TIME_SYSTEM    = UTC
MEAN_ELEMENT_THEORY = SGP/SGP4

EPOCH          = 2026-03-11T10:00:01.999584
MEAN_MOTION    = 15.96773569
ECCENTRICITY   = .0000811
INCLINATION    = 53.1595
RA_OF_ASC_NODE = 186.4415
ARG_OF_PERICENTER = 97.6563
MEAN_ANOMALY   = 185.0458

EPHEMERIS_TYPE = 0
CLASSIFICATION_TYPE = U
NORAD_CAT_ID   = 68070
ELEMENT_SET_NO = 999
REV_AT_EPOCH   = 231
BSTAR          = -.31388E-2
MEAN_MOTION_DOT = -.1372502E-1
MEAN_MOTION_DDOT = .57068E-3

CCSDS_OMM_VERS = 2.0
CREATION_DATE  = 
ORIGINATOR     = 

OBJECT_NAME    = STARLINK-36970
OBJECT_ID      = 2026-042C
CENTER_NAME    = EARTH
REF_FRAME      = TEME
TIME_SYSTEM    = UTC
MEAN_ELEMENT_THEORY = SGP/SGP4

EPOCH          = 2026-03-11T10:00:01.999584
MEAN_MOTION    = 15.97018054
ECCENTRICITY   = .000097
INCLINATION    = 53.1600
RA_OF_ASC_NODE = 186.4330
ARG_OF_PERICENTER = 74.5488
MEAN_ANOMALY   = 212.2528

EPHEMERIS_TYPE = 0
CLASSIFICATION_TYPE = U
NORAD_CAT_ID   = 68071
ELEMENT_SET_NO = 999
REV_AT_EPOCH   = 232
BSTAR          = -.30891E-2
MEAN_MOTION_DOT = -.1369112E-1
MEAN_MOTION_DDOT = .56955E-3

CCSDS_OMM_VERS = 2.0
CREATION_DATE  = 
ORIGINATOR     = 

OBJECT_NAME    = STARLINK-36972
OBJECT_ID      = 2026-042D
CENTER_NAME    = EARTH
REF_FRAME      = TEME
TIME_SYSTEM    = UTC
MEAN_ELEMENT_THEORY = SGP/SGP4

EPOCH          = 2026-03-11T10:00:01.999584
MEAN_MOTION    = 15.96888483
ECCENTRICITY   = .0000768
INCLINATION    = 53.1600
RA_OF_ASC_NODE = 186.4377
ARG_OF_PERICENTER = 89.0542
MEAN_ANOMALY   = 195.4611

EPHEMERIS_TYPE = 0
CLASSIFICATION_TYPE = U
NORAD_CAT_ID   = 68072
ELEMENT_SET_NO = 999
REV_AT_EPOCH   = 232
BSTAR          = -.31183E-2
MEAN_MOTION_DOT = -.1372189E-1
MEAN_MOTION_DDOT = .57112E-3

CCSDS_OMM_VERS = 2.0
CREATION_DATE  = 
ORIGINATOR     = 

OBJECT_NAME    = STARLINK-37074
OBJECT_ID      = 2026-042E
CENTER_NAME    = EARTH
REF_FRAME      = TEME
TIME_SYSTEM    = UTC
MEAN_ELEMENT_THEORY = SGP/SGP4

EPOCH          = 2026-03-11T10:00:01.999584
MEAN_MOTION    = 15.97145678
ECCENTRICITY   = .0000765
INCLINATION    = 53.1600
RA_OF_ASC_NODE = 186.4289
ARG_OF_PERICENTER = 81.9325
MEAN_ANOMALY   = 206.9646

EPHEMERIS_TYPE = 0
CLASSIFICATION_TYPE = U
NORAD_CAT_ID   = 68073
ELEMENT_SET_NO = 999
REV_AT_EPOCH   = 232
BSTAR          = -.3081E-2
MEAN_MOTION_DOT = -.1375051E-1
MEAN_MOTION_DDOT = .57483E-3

CCSDS_OMM_VERS = 2.0
CREATION_DATE  = 
ORIGINATOR     = 

OBJECT_NAME    = STARLINK-37045
OBJECT_ID      = 2026-042F
CENTER_NAME    = EARTH
REF_FRAME      = TEME
TIME_SYSTEM    = UTC
MEAN_ELEMENT_THEORY = SGP/SGP4

EPOCH          = 2026-03-11T10:00:01.999584
MEAN_MOTION    = 15.97273662
ECCENTRICITY   = .0000785
INCLINATION    = 53.1599
RA_OF_ASC_NODE = 186.4242
ARG_OF_PERICENTER = 78.6812
MEAN_ANOMALY   = 212.4560

EPHEMERIS_TYPE = 0
CLASSIFICATION_TYPE = U
NORAD_CAT_ID   = 68074
ELEMENT_SET_NO = 999
REV_AT_EPOCH   = 232
BSTAR          = -.3049E-2
MEAN_MOTION_DOT = -.137049E-1
MEAN_MOTION_DDOT = .57211E-3

CCSDS_OMM_VERS = 2.0
CREATION_DATE  = 
ORIGINATOR     = 

OBJECT_NAME    = STARLINK-37026
OBJECT_ID      = 2026-042G
CENTER_NAME    = EARTH
REF_FRAME      = TEME
TIME_SYSTEM    = UTC
MEAN_ELEMENT_THEORY = SGP/SGP4

EPOCH          = 2026-03-11T10:00:01.999584
MEAN_MOTION    = 15.97397632
ECCENTRICITY   = .0000811
INCLINATION    = 53.1598
RA_OF_ASC_NODE = 186.4193
ARG_OF_PERICENTER = 81.9000
MEAN_ANOMALY   = 211.5412

EPHEMERIS_TYPE = 0
CLASSIFICATION_TYPE = U
NORAD_CAT_ID   = 68075
ELEMENT_SET_NO = 999
REV_AT_EPOCH   = 232
BSTAR          = -.2998E-2
MEAN_MOTION_DOT = -.1356996E-1
MEAN_MOTION_DDOT = .5626E-3

CCSDS_OMM_VERS = 2.0
CREATION_DATE  = 
ORIGINATOR     = 

OBJECT_NAME    = STARLINK-37023
OBJECT_ID      = 2026-042H
CENTER_NAME    = EARTH
REF_FRAME      = TEME
TIME_SYSTEM    = UTC
MEAN_ELEMENT_THEORY = SGP/SGP4

EPOCH          = 2026-03-11T10:00:01.999584
MEAN_MOTION    = 15.97529062
ECCENTRICITY   = .0000796
INCLINATION    = 53.1597
RA_OF_ASC_NODE = 186.4150
ARG_OF_PERICENTER = 84.5470
MEAN_ANOMALY   = 211.0027

EPHEMERIS_TYPE = 0
CLASSIFICATION_TYPE = U
NORAD_CAT_ID   = 68076
ELEMENT_SET_NO = 999
REV_AT_EPOCH   = 232
BSTAR          = -.29999E-2
MEAN_MOTION_DOT = -.1367656E-1
MEAN_MOTION_DDOT = .57147E-3

CCSDS_OMM_VERS = 2.0
CREATION_DATE  = 
ORIGINATOR     = 

OBJECT_NAME    = STARLINK-37036
OBJECT_ID      = 2026-042J
CENTER_NAME    = EARTH
REF_FRAME      = TEME
TIME_SYSTEM    = UTC
MEAN_ELEMENT_THEORY = SGP/SGP4

EPOCH          = 2026-03-11T10:00:01.999584
MEAN_MOTION    = 15.97646556
ECCENTRICITY   = .0000937
INCLINATION    = 53.1599
RA_OF_ASC_NODE = 186.4112
ARG_OF_PERICENTER = 76.5617
MEAN_ANOMALY   = 220.8442

EPHEMERIS_TYPE = 0
CLASSIFICATION_TYPE = U
NORAD_CAT_ID   = 68077
ELEMENT_SET_NO = 999
REV_AT_EPOCH   = 232
BSTAR          = -.29749E-2
MEAN_MOTION_DOT = -.1365167E-1
MEAN_MOTION_DDOT = .57028E-3

